NORAD_CAT_ID,OBJECT_NAME,OBJECT_TYPE,EPOCH,MEAN_MOTION,ECCENTRICITY,INCLINATION,RA_OF_ASC_NODE,ARG_OF_PERICENTER,MEAN_ANOMALY,BSTAR,MEAN_MOTION_DOT,MEAN_MOTION_DDOT,TLE_LINE0,TLE_LINE1,TLE_LINE2,SEMIMAJOR_AXIS,PERIOD,APOGEE,PERIGEE,DECAYED
52700.0,STARLINK-4034,PAYLOAD,2024-02-06 03:07:48,15.08843761,0.0001453,53.2193,332.0284,100.573,259.5426,3.733e-05,3.06e-06,0.0,0 STARLINK-4034,1 52700U 22053AW  24037.13041746  .00000306  00000-0  37330-4 0  9997,2 52700  53.2193 332.0284 0001453 100.5730 259.5426 15.08843761 95561,6917.869,95.437,540.739,538.729,0.0
52700.0,STARLINK-4034,PAYLOAD,2024-02-07 12:30:54,15.08836337,0.0001739,53.22,325.7811,72.7176,287.4006,-2.2183e-06,-3.23e-06,0.0,0 STARLINK-4034,1 52700U 22053AW  24038.52146457 -.00000323  00000-0 -22183-5 0  9998,2 52700  53.2200 325.7811 0001739  72.7176 287.4006 15.08836337 95774,6917.892,95.438,540.96,538.554,0.0
52700.0,STARLINK-4034,PAYLOAD,2024-02-08 04:24:46,15.08838319,0.0001685,53.2201,322.8019,85.7669,274.3516,-3.049e-05,-7.73e-06,0.0,0 STARLINK-4034,1 52700U 22053AW  24039.18386588 -.00000773  00000-0 -30490-4 0  9990,2 52700  53.2201 322.8019 0001685  85.7669 274.3516 15.08838319 96284,6917.886,95.438,540.916,538.585,0.0
52700.0,STARLINK-4034,PAYLOAD,2024-02-08 21:53:59,15.08856669,0.0001626,53.2198,319.5323,105.6586,254.4586,-9.2879e-05,-1.767e-05,0.0,0 STARLINK-4034,1 52700U 22053AW  24039.91249737 -.00001767  00000-0 -92879-4 0  9998,2 52700  53.2198 319.5323 0001626 105.6586 254.4586 15.08856669 96391,6917.829,95.437,540.819,538.57,0.0
52700.0,STARLINK-4034,PAYLOAD,2024-02-09 01:04:45,15.08851636,0.0001742,53.2199,318.9408,80.0846,280.0343,1.8882e-05,1.2e-07,0.0,0 STARLINK-4034,1 52700U 22053AW  24040.04497684  .00000012  00000-0  18882-4 0  9992,2 52700  53.2199 318.9408 0001742  80.0846 280.0343 15.08851636 96006,6917.845,95.437,540.915,538.505,0.0
52700.0,STARLINK-4034,PAYLOAD,2024-02-09 04:15:31,15.0886366,0.0001376,53.2185,318.3463,91.6325,268.4825,0.00011258,1.505e-05,0.0,0 STARLINK-4034,1 52700U 22053AW  24040.17744468  .00001505  00000-0  11258-3 0  9998,2 52700  53.2185 318.3463 0001376  91.6325 268.4825 15.08863660 96026,6917.808,95.436,540.625,538.721,0.0
52700.0,STARLINK-4034,PAYLOAD,2024-02-09 18:34:01,15.08831194,0.0001404,53.2192,315.6671,97.8303,262.2849,8.5652e-05,1.075e-05,0.0,0 STARLINK-4034,1 52700U 22053AW  24040.77362596  .00001075  00000-0  85652-4 0  9994,2 52700  53.2192 315.6671 0001404  97.8303 262.2849 15.08831194 96116,6917.907,95.438,540.744,538.801,0.0
52700.0,STARLINK-4034,PAYLOAD,2024-02-10 00:55:33,15.08843376,0.0001613,53.2193,314.4818,77.4991,282.6181,5.6215e-05,6.07e-06,0.0,0 STARLINK-4034,1 52700U 22053AW  24041.03858163  .00000607  00000-0  56215-4 0  9997,2 52700  53.2193 314.4818 0001613  77.4991 282.6181 15.08843376 96150,6917.87,95.437,540.851,538.619,0.0
52700.0,STARLINK-4034,PAYLOAD,2024-02-10 04:06:19,15.08848194,0.0001457,53.2189,313.8837,90.6505,269.4654,0.00011077,1.476e-05,0.0,0 STARLINK-4034,1 52700U 22053AW  24041.17105607  .00001476  00000-0  11077-3 0  9991,2 52700  53.2189 313.8837 0001457  90.6505 269.4654 15.08848194 96581,6917.855,95.437,540.728,538.712,0.0
52700.0,STARLINK-4034,PAYLOAD,2024-02-10 21:35:36,15.08824803,0.0001309,53.2181,310.6143,106.2156,253.898,-0.00025123,-4.282e-05,0.0,0 STARLINK-4034,1 52700U 22053AW  24041.89972725 -.00004282  00000-0 -25123-3 0  9990,2 52700  53.2181 310.6143 0001309 106.2156 253.8980 15.08824803 96692,6917.927,95.439,540.697,538.886,0.0
52700.0,STARLINK-4034,PAYLOAD,2024-02-11 00:46:22,15.08825656,0.0001348,53.2185,310.0192,101.9602,258.1541,-0.00022447,-3.857e-05,0.0,0 STARLINK-4034,1 52700U 22053AW  24042.03220718 -.00003857  00000-0 -22447-3 0  9998,2 52700  53.2185 310.0192 0001348 101.9602 258.1541 15.08825656 96301,6917.924,95.438,540.722,538.857,0.0
52700.0,STARLINK-4034,PAYLOAD,2024-02-11 03:57:09,15.08825072,0.0001359,53.2186,309.4224,103.8992,256.2151,-0.00020058,-3.477e-05,0.0,0 STARLINK-4034,1 52700U 22053AW  24042.16468771 -.00003477  00000-0 -20058-3 0  9999,2 52700  53.2186 309.4224 0001359 103.8992 256.2151 15.08825072 96730,6917.926,95.438,540.731,538.851,0.0
52700.0,STARLINK-4034,PAYLOAD,2024-02-11 21:26:20,15.0885916,0.0001278,53.2183,306.1515,113.3369,246.7757,0.00017731,2.537e-05,0.0,0 STARLINK-4034,1 52700U 22053AW  24042.89329624  .00002537  00000-0  17731-3 0  9990,2 52700  53.2183 306.1515 0001278 113.3369 246.7757 15.08859160 96436,6917.822,95.436,540.571,538.803,0.0
52700.0,STARLINK-4034,PAYLOAD,2024-02-12 03:47:52,15.08862698,0.0001286,53.2183,304.9614,113.4944,246.6183,0.00020021,2.902e-05,0.0,0 STARLINK-4034,1 52700U 22053AW  24043.15825072  .00002902  00000-0  20021-3 0  9990,2 52700  53.2183 304.9614 0001286 113.4944 246.6183 15.08862698 96882,6917.811,95.436,540.566,538.786,0.0
52700.0,STARLINK-4034,PAYLOAD,2024-02-12 22:52:33,15.08829521,0.0001348,53.2176,301.397,94.0561,266.0585,0.00012807,1.75e-05,0.0,0 STARLINK-4034,1 52700U 22053AW  24043.95316309  .00001750  00000-0  12807-3 0  9999,2 52700  53.2176 301.3970 0001348  94.0561 266.0585 15.08829521 97003,6917.912,95.438,540.71,538.845,0.0
52700.0,STARLINK-4034,PAYLOAD,2024-02-13 03:38:42,15.08835549,0.0001455,53.2184,300.5017,100.0904,260.0252,0.00021352,3.111e-05,0.0,0 STARLINK-4034,1 52700U 22053AW  24044.15187795  .00003111  00000-0  21352-3 0  9995,2 52700  53.2184 300.5017 0001455 100.0904 260.0252 15.08835549 96622,6917.894,95.438,540.766,538.752,0.0
52700.0,STARLINK-4034,PAYLOAD,2024-02-13 10:00:15,15.08836331,0.0001489,53.2177,299.3134,84.7661,275.3501,0.00018846,2.712e-05,0.0,0 STARLINK-4034,1 52700U 22053AW  24044.41684055  .00002712  00000-0  18846-3 0  9995,2 52700  53.2177 299.3134 0001489  84.7661 275.3501 15.08836331 97070,6917.892,95.438,540.787,538.727,0.0
52700.0,STARLINK-4034,PAYLOAD,2024-02-13 22:43:19,15.088529,0.000164,53.2175,296.9364,90.661,269.457,-8.5028e-05,-1.642e-05,0.0,0 STARLINK-4034,1 52700U 22053AW  24044.94675458 -.00001642  00000-0 -85028-4 0  9990,2 52700  53.2175 296.9364 0001640  90.6610 269.4570 15.08852900 97154,6917.841,95.437,540.84,538.571,0.0
52700.0,STARLINK-4034,PAYLOAD,2024-02-14 01:54:05,15.08856233,0.0001437,53.2175,296.3431,85.3015,274.8141,-3.3234e-05,-8.17e-06,0.0,0 STARLINK-4034,1 52700U 22053AW  24045.07923005 -.00000817  00000-0 -33234-4 0  9994,2 52700  53.2175 296.3431 0001437  85.3015 274.8141 15.08856233 96760,6917.831,95.437,540.69,538.702,0.0
52700.0,STARLINK-4034,PAYLOAD,2024-02-14 09:51:00,15.08854381,0.0001571,53.2175,294.8523,126.4875,233.6262,-3.2844e-05,-8.11e-06,0.0,0 STARLINK-4034,1 52700U 22053AW  24045.41042368 -.00000811  00000-0 -32844-4 0  9996,2 52700  53.2175 294.8523 0001571 126.4875 233.6262 15.08854381 97226,6917.836,95.437,540.788,538.615,0.0
52700.0,STARLINK-4034,PAYLOAD,2024-02-14 22:34:06,15.08848553,0.0001324,53.216,292.4744,106.3928,253.721,5.7477e-05,6.27e-06,0.0,0 STARLINK-4034,1 52700U 22053AW  24045.94034821  .00000627  00000-0  57477-4 0  9991,2 52700  53.2160 292.4744 0001324 106.3928 253.7210 15.08848553 97300,6917.854,95.437,540.635,538.803,0.0
52700.0,STARLINK-4034,PAYLOAD,2024-02-15 01:44:51,15.08855658,0.0001431,53.216,291.8796,104.2629,255.8522,0.00011891,1.606e-05,0.0,0 STARLINK-4034,1 52700U 22053AW  24046.07282159  .00001606  00000-0  11891-3 0  9992,2 52700  53.2160 291.8796 0001431 104.2629 255.8522 15.08855658 97329,6917.833,95.437,540.687,538.708,0.0
52700.0,STARLINK-4034,PAYLOAD,2024-02-15 22:24:53,15.08840481,0.0001569,53.2168,288.014,103.6276,256.4891,-2.5019e-05,-6.86e-06,0.0,0 STARLINK-4034,1 52700U 22053AW  24046.93395472 -.00000686  00000-0 -25019-4 0  9997,2 52700  53.2168 288.0140 0001569 103.6276 256.4891 15.08840481 97459,6917.879,95.438,540.829,538.659,0.0
52700.0,STARLINK-4034,PAYLOAD,2024-02-16 01:35:39,15.08844795,0.0001385,53.2171,287.4167,103.5779,256.5367,-3.9919e-05,-9.23e-06,0.0,0 STARLINK-4034,1 52700U 22053AW  24047.06643125 -.00000923  00000-0 -39919-4 0  9991,2 52700  53.2171 287.4167 0001385 103.5779 256.5367 15.08844795 97066,6917.866,95.437,540.689,538.773,0.0
52700.0,STARLINK-4034,PAYLOAD,2024-02-16 09:32:35,15.08842533,0.0001343,53.217,285.931,107.1451,252.9688,1.5607e-05,-4e-07,0.0,0 STARLINK-4034,1 52700U 22053AW  24047.39763056 -.00000040  00000-0  15607-4 0  9990,2 52700  53.2170 285.9310 0001343 107.1451 252.9688 15.08842533 97524,6917.873,95.437,540.667,538.809,0.0
52700.0,STARLINK-4034,PAYLOAD,2024-02-16 22:15:39,15.08850403,0.0001474,53.2174,283.5523,100.3473,259.7685,1.2587e-07,-2.86e-06,0.0,0 STARLINK-4034,1 52700U 22053AW  24047.92754615 -.00000286  00000-0  12587-6 0  9998,2 52700  53.2174 283.5523 0001474 100.3473 259.7685 15.08850403 97608,6917.849,95.437,540.733,538.694,0.0
52700.0,STARLINK-4034,PAYLOAD,2024-02-17 18:55:41,15.08836118,0.0001472,53.2166,279.6854,110.4547,249.6603,4.8609e-05,4.86e-06,0.0,0 STARLINK-4034,1 52700U 22053AW  24048.78867456  .00000486  00000-0  48609-4 0  9994,2 52700  53.2166 279.6854 0001472 110.4547 249.6603 15.08836118 97328,6917.892,95.438,540.776,538.739,0.0
52700.0,STARLINK-4034,PAYLOAD,2024-02-17 22:06:27,15.08837601,0.0001243,53.2162,279.092,87.8944,272.2191,5.1862e-05,5.38e-06,0.0,0 STARLINK-4034,1 52700U 22053AW  24048.92115488  .00000538  00000-0  51862-4 0  9994,2 52700  53.2162 279.0920 0001243  87.8944 272.2191 15.08837601 97755,6917.888,95.438,540.613,538.893,0.0
52700.0,STARLINK-4034,PAYLOAD,2024-02-18 07:38:46,15.08838947,0.0001291,53.2162,277.3086,86.7103,273.4036,2.8539e-05,1.66e-06,0.0,0 STARLINK-4034,1 52700U 22053AW  24049.31859552  .00000166  00000-0  28539-4 0  9997,2 52700  53.2162 277.3086 0001291  86.7103 273.4036 15.08838947 97819,6917.884,95.438,540.642,538.856,0.0
52700.0,STARLINK-4034,PAYLOAD,2024-02-18 20:21:51,15.08840843,0.0001342,53.216,274.9295,87.2609,272.8537,5.8684e-05,6.46e-06,0.0,0 STARLINK-4034,1 52700U 22053AW  24049.84851453  .00000646  00000-0  58684-4 0  9994,2 52700  53.2160 274.9295 0001342  87.2609 272.8537 15.08840843 97486,6917.878,95.438,540.671,538.814,0.0
